FENGYUN 1C DEB          
1 37906U 99025ENF 26159.36062593  .00000410  00000+0  39232-3 0  9993
2 37906  99.5795 207.9137 0161116 281.3722 138.1670 13.81016366619075
FENGYUN 1C DEB          
1 37907U 99025ENG 26157.08292198  .00005284  00000+0  22192-2 0  9997
2 37907  99.0876 280.9825 0057863  44.5234 316.0573 14.25403250857698
FENGYUN 1C DEB          
1 37908U 99025ENH 26156.39186040  .00001266  00000+0  42919-3 0  9995
2 37908  99.1290 204.0365 0073443   8.6208 351.6219 14.37116057665698
FENGYUN 1C DEB          
1 37914U 99025ENP 26141.22594290  .00001193  00000+0  60727-3 0  9994
2 37914  99.2121 144.6199 0065706 263.1288  96.2406 14.16773188644465
FENGYUN 1C DEB          
1 37918U 99025ENT 26157.62216004  .00001520  00000+0  54009-3 0  9993
2 37918  99.0478 120.1929 0056224 127.7000 232.9301 14.35053215 60642
FENGYUN 1C DEB          
1 37919U 99025ENU 26159.59487583  .00000784  00000+0  33672-3 0  9998
2 37919  99.0755 108.9751 0047564 221.9970 137.7559 14.27183519674457
FENGYUN 1C DEB          
1 37921U 99025ENW 26158.35092671  .00000146  00000+0  13667-3 0  9998
2 37921  98.9956 200.3714 0082795 335.3539  24.3676 13.95256806656100
FENGYUN 1C DEB          
1 37925U 99025EPA 26159.46215189  .00009214  00000+0  10747-2 0  9996
2 37925  99.0695  57.4813 0052246 140.4276 220.0767 14.84484201683161
FENGYUN 1C DEB          
1 37926U 99025EPB 26157.15382632  .00003622  00000+0  15313-2 0  9990
2 37926  98.7070 224.0537 0053738  75.3155 339.4818 14.25363009767688
FENGYUN 1C DEB          
1 37927U 99025EPC 26156.26910794  .00023443  00000+0  29323-2 0  9997
2 37927  98.8130 320.9658 0006740  98.4961 261.7013 14.82280161676930
FENGYUN 1C DEB          
1 37928U 99025EPD 26158.40405555  .00001398  00000+0  46671-3 0  9991
2 37928  98.8970  44.2956 0070367 231.8453 127.6378 14.37767057837303
FENGYUN 1C DEB          
1 38116U 99025EPM 26155.93652869  .00000974  00000+0  49021-3 0  9999
2 38116  98.6904 196.0130 0071160   8.6682 114.3738 14.17387829669527
FENGYUN 1C DEB          
1 38119U 99025EPQ 26151.43529503  .00019721  00000+0  74298-2 0  9994
2 38119  98.5853 223.9966 0227175 102.7700 259.8966 14.18187140564128
FENGYUN 1C DEB          
1 38121U 99025EPS 26158.20187757  .00001278  00000+0  48178-3 0  9997
2 38121  99.1352 320.9210 0203120 343.7333  15.7386 14.22597133864282
FENGYUN 1C DEB          
1 38122U 99025EPT 26159.74996857  .00002357  00000+0  52418-3 0  9998
2 38122  98.3163 163.1634 0224246 338.3970  20.7871 14.43563794703062
FENGYUN 1C DEB          
1 38124U 99025EPV 26158.54339238  .00000185  00000+0  26820-3 0  9996
2 38124  97.8233  76.4495 0355438 207.9884 150.1730 13.41016549569510
FENGYUN 1C DEB          
1 38130U 99025EQB 26157.82110950  .00001647  00000+0  14252-2 0  9990
2 38130  98.5898 198.0148 0209830 111.5015 250.8652 13.77945192717079
FENGYUN 1C DEB          
1 38135U 99025EQG 26156.95936689  .00000830  00000+0  28829-3 0  9992
2 38135  98.6332 216.4626 0219380 280.5440  77.1095 14.25762038635377
FENGYUN 1C DEB          
1 38137U 99025EQJ 26156.94564773  .00000217  00000+0  15676-3 0  9999
2 38137  98.8388 200.8061 0044372 297.9609  61.7071 14.06324933661715
FENGYUN 1C DEB          
1 38143U 99025EQQ 26157.42072619  .00000733  00000+0  47351-3 0  9991
2 38143  99.0046 217.2461 0057496  94.1042 266.6699 14.05244353627508
FENGYUN 1C DEB          
1 38144U 99025EQR 26149.28170474  .00001333  00000+0  14016-2 0  9993
2 38144  98.9800 324.8978 0290915 118.2261 244.8579 13.59464740633132
FENGYUN 1C DEB          
1 38146U 99025EQT 26160.08044500  .00002502  00000+0  39926-3 0  9993
2 38146  99.4801 271.1656 0195003 286.9661 254.2155 14.61224943344820
FENGYUN 1C DEB          
1 38147U 99025EQU 26146.25555987  .00000975  00000+0  43839-3 0  9993
2 38147  98.5494 161.0178 0050497 178.7715 181.3597 14.23896159627286
FENGYUN 1C DEB          
1 38149U 99025EQW 26158.72801766  .00000590  00000+0  25558-3 0  9990
2 38149  98.3690 147.9977 0077624   2.9548 357.2076 14.26136977730107
FENGYUN 1C DEB          
1 38155U 99025ERC 26153.94994317  .00005379  00000+0  21163-2 0  9998
2 38155  98.4437  57.1484 0096119 345.6668  14.1790 14.27106156662304
FENGYUN 1C DEB          
1 38157U 99025ERE 26160.52600070  .00002289  00000+0  71929-3 0  9995
2 38157  99.6560  89.6589 0270657 332.1756  26.5160 14.22795674787896
FENGYUN 1C DEB          
1 38158U 99025ERF 26146.31156402  .00000720  00000+0  71267-3 0  9995
2 38158  99.2667 172.9097 0213276  18.0544 342.8032 13.72129223591395
FENGYUN 1C DEB          
1 38159U 99025ERG 26159.97173225  .00000185  00000+0  14534-3 0  9993
2 38159  99.3019  60.8155 0055188 208.8729 150.9380 14.03725082856127
FENGYUN 1C DEB          
1 38163U 99025ERL 26157.31761166  .00001300  00000+0  79282-3 0  9992
2 38163  99.1037 200.0545 0077692 114.4937 246.4358 14.06359302270091
FENGYUN 1C DEB          
1 38166U 99025ERP 26158.03370750  .00007272  00000+0  25975-2 0  9993
2 38166  99.0795 274.3196 0051476 247.9163 111.6549 14.33678995662963
FENGYUN 1C DEB          
1 38169U 99025ERS 26158.71628470  .00012082  00000+0  16892-2 0  9999
2 38169  98.9851 157.1442 0025560 232.1457 127.7438 14.77557486638772
FENGYUN 1C DEB          
1 38172U 99025ERV 26141.09987266  .00000379  00000+0  48949-3 0  9992
2 38172 100.4140 246.2578 0277518 298.0323  59.2996 13.54893139638300
FENGYUN 1C DEB          
1 38173U 99025ERW 26159.49191117  .00003300  00000+0  94406-3 0  9994
2 38173  98.9910  73.1025 0158533 310.3940  48.3499 14.38711736631988
FENGYUN 1C DEB          
1 38491U 99025ESA 26145.24814803  .00000353  00000+0  23279-3 0  9994
2 38491  98.9338 151.8874 0224204 296.0807  61.7435 13.96577611687426
FENGYUN 1C DEB          
1 38492U 99025ESB 26157.44715561  .00004177  00000+0  25144-2 0  9991
2 38492  98.6064 222.6268 0223850  23.7267 337.4028 13.95545914584534
FENGYUN 1C DEB          
1 38493U 99025ESC 26160.12410492  .00000298  00000+0  23369-3 0  9994
2 38493  99.1028 113.1193 0426928 142.2116 220.9834 13.62511919589272
FENGYUN 1C DEB          
1 38494U 99025ESD 26142.12214547  .00002773  00000+0  97604-3 0  9991
2 38494  98.4479  85.8365 0374013 276.2047  79.6646 14.03036022 94015
FENGYUN 1C DEB          
1 38495U 99025ESE 26149.29071504  .00002974  00000+0  27373-2 0  9999
2 38495  99.1523 162.7093 0252683  61.7009 300.9385 13.70050199634069
FENGYUN 1C DEB          
1 38496U 99025ESF 26160.26429711  .00001034  00000+0  58829-3 0  9994
2 38496  98.7694 170.4778 0076611 217.4446 142.1373 14.10525666835371
FENGYUN 1C DEB          
1 38498U 99025ESH 26160.25356022  .00000931  00000+0  16415-2 0  9998
2 38498  99.6905 166.1372 0557225  26.4999 336.3489 12.96939769560573
FENGYUN 1C DEB          
1 38500U 99025ESK 26150.43575685  .00004069  00000+0  31487-2 0  9991
2 38500  98.6457 229.6622 0205536 133.0090 228.8495 13.83785608255473
FENGYUN 1C DEB          
1 38510U 99025ESV 26142.30649862  .00000746  00000+0  39777-3 0  9997
2 38510  98.5977 150.2827 0099028  51.7159 309.2871 14.13722156909386
FENGYUN 1C DEB          
1 38512U 99025ESX 26150.09189977  .00001361  00000+0  12250-2 0  9990
2 38512  98.3685  16.3883 0227459  11.9633 348.6798 13.74441614618826
FENGYUN 1C DEB          
1 38513U 99025ESY 26153.52051074  .00016333  00000+0  13037-2 0  9997
2 38513  97.6156  51.1462 0234136  44.8829 317.1055 14.81233160661957
FENGYUN 1C DEB          
1 38514U 99025ESZ 26160.28861052  .00004580  00000+0  15738-2 0  9995
2 38514  98.0391 178.5888 0254381 208.8028 149.8907 14.19875170905273
FENGYUN 1C DEB          
1 38516U 99025ETB 26148.21725037  .00000387  00000+0  14412-3 0  9998
2 38516  98.4613 133.4431 0110219 351.7281   8.2084 14.34194898872590
FENGYUN 1C DEB          
1 38519U 99025ETE 26151.75412476  .00001798  00000+0  13808-2 0  9998
2 38519  99.5461 136.2588 0167360 310.9002  47.7759 13.88226177870967
FENGYUN 1C DEB          
1 38717U 99025ETJ 26160.33207941  .00002279  00000+0  10554-2 0  9991
2 38717  99.1457 186.8030 0055087 203.6630 173.4019 14.21062293609622
FENGYUN 1C DEB          
1 38722U 99025ETP 26145.30035937  .00007233  00000+0  12350-2 0  9992
2 38722  99.3541 269.7785 0133364 320.2221  38.9257 14.63579159728529
FENGYUN 1C DEB          
1 38724U 99025ETR 26151.98597739  .00005837  00000+0  27131-2 0  9999
2 38724  98.7299 162.7324 0117121 304.7057  54.3129 14.17412217590349
FENGYUN 1C DEB          
1 38725U 99025ETS 26151.58172968  .00010095  00000+0  28433-2 0  9997
2 38725  98.8826 289.2005 0034122 112.4579 248.0230 14.45655952758044
FENGYUN 1C DEB          
1 38727U 99025ETU 26151.94147905  .00002316  00000+0  13920-2 0  9994
2 38727  98.6091 145.5965 0105107 101.5766 289.0454 14.05021186742224
FENGYUN 1C DEB          
1 38728U 99025ETV 26160.30258166  .00003624  00000+0  54822-3 0  9997
2 38728  99.2604 177.3263 0069632 222.9725 194.7682 14.73376188682386
FENGYUN 1C DEB          
1 38789U 99025EUD 26153.94508279  .00001793  00000+0  39486-3 0  9993
2 38789  98.8435  52.7415 0202552 228.6370 191.9636 14.46937217643352
FENGYUN 1C DEB          
1 38795U 99025EUK 26155.77427255  .00002681  00000+0  28828-2 0  9991
2 38795  98.6966 157.3343 0498647 182.7777 177.0557 13.30646046808260
FENGYUN 1C DEB          
1 38797U 99025EUM 26159.50786666  .00000415  00000+0  48505-3 0  9990
2 38797  99.4694  52.3630 0246002 126.9553 235.4391 13.61820572617029
FENGYUN 1C DEB          
1 38798U 99025EUN 26155.07139816  .00000356  00000+0  53595-3 0  9997
2 38798  98.8356 260.8986 0408114  32.7500 329.8234 13.29138040210375
FENGYUN 1C DEB          
1 38799U 99025EUP 26160.46190003  .00004089  00000+0  89410-3 0  9994
2 38799  98.3893 240.2895 0161794 164.2561 196.3750 14.50457800666284
FENGYUN 1C DEB          
1 38801U 99025EUR 26158.41165206  .00002126  00000+0  48960-3 0  9992
2 38801  98.3494 206.1895 0345219 191.7856 185.3678 14.25689026668776
